STARLINK-4763           
1 53805U 22111AJ  26068.81410105  .00001486  00000+0  11145-3 0  9993
2 53805  53.2160 248.6923 0001214  94.8468 265.2663 15.08839551194044
CSC-1                   
1 58022U 23155G   26068.74030489  .00008819  00000+0  54557-3 0  9994
2 58022  97.5446 139.7305 0007504 212.9992 147.0770 15.10035960132723
